start=new Date('2021-10-23T00:00:00.000Z').valueOf();
sats=[{"ARG_OF_PERICENTER":"122.4578","TLE_LINE2":"2 47414  97.4835 355.4234 0004213 122.4578 237.7062 15.14315234 41341","TLE_LINE1":"1 47414U 21006B   21295.75714311  .00000065  00000-0  71083-5 0  9992","REV_AT_EPOCH":"4134","PERIOD":"95.092","INCLINATION":"97.4835","LAUNCH_DATE":"2021-01-24","OBJECT_TYPE":"PAYLOAD","TIME_SYSTEM":"UTC","ELEMENT_SET_NO":"999","MEAN_ELEMENT_THEORY":"SGP4","RCS_SIZE":"LARGE","GP_ID":"187933461","NORAD_CAT_ID":"47414","COUNTRY_CODE":"US","REF_FRAME":"TEME","MEAN_ANOMALY":"237.7062","ECCENTRICITY":"0.00042130","APOAPSIS":"525.968","OBJECT_NAME":"STARLINK-2200","EPOCH":"2021-10-22T18:10:17.164704","MEAN_MOTION_DOT":"0.00000065","OBJECT_ID":"2021-006B","FILE":"3179071","MEAN_MOTION":"15.14315234","BSTAR":"0.00000710830000","EPHEMERIS_TYPE":"0","RA_OF_ASC_NODE":"355.4234","SEMIMAJOR_AXIS":"6901.195","MEAN_MOTION_DDOT":"0.0000000000000","CLASSIFICATION_TYPE":"U","DECAY_DATE":null,"PERIAPSIS":"520.153","CENTER_NAME":"EARTH","SITE":"AFETR"},{"REV_AT_EPOCH":"4112","PERIOD":"95.920","INCLINATION":"97.4951","LAUNCH_DATE":"2021-01-24","OBJECT_TYPE":"PAYLOAD","ARG_OF_PERICENTER":"138.7087","TLE_LINE2":"2 47415  97.4951 352.0984 0003679 138.7087 221.4416 15.01250312 41126","TLE_LINE1":"1 47415U 21006C   21295.70998390 -.00000506  00000-0 -34972-4 0  9996","RCS_SIZE":"LARGE","GP_ID":"187933711","NORAD_CAT_ID":"47415","COUNTRY_CODE":"US","REF_FRAME":"TEME","MEAN_ANOMALY":"221.4416","ECCENTRICITY":"0.00036790","MEAN_ELEMENT_THEORY":"SGP4","ELEMENT_SET_NO":"999","TIME_SYSTEM":"UTC","OBJECT_ID":"2021-006C","MEAN_MOTION":"15.01250312","FILE":"3179071","BSTAR":"-0.00003497200000","EPHEMERIS_TYPE":"0","RA_OF_ASC_NODE":"352.0984","OBJECT_NAME":"STARLINK-2201","APOAPSIS":"565.595","EPOCH":"2021-10-22T17:02:22.608960","MEAN_MOTION_DOT":"-0.00000506","DECAY_DATE":null,"CLASSIFICATION_TYPE":"U","PERIAPSIS":"560.488","CENTER_NAME":"EARTH","SITE":"AFETR","SEMIMAJOR_AXIS":"6941.177","MEAN_MOTION_DDOT":"0.0000000000000"},{"RA_OF_ASC_NODE":"355.4077","OBJECT_ID":"2021-006D","FILE":"3179071","MEAN_MOTION":"15.14316123","BSTAR":"0.00007985400000","EPHEMERIS_TYPE":"0","OBJECT_NAME":"STARLINK-2202","APOAPSIS":"525.994","EPOCH":"2021-10-22T18:14:14.100288","MEAN_MOTION_DOT":"0.00001397","CENTER_NAME":"EARTH","SITE":"AFETR","CLASSIFICATION_TYPE":"U","DECAY_DATE":null,"PERIAPSIS":"520.121","SEMIMAJOR_AXIS":"6901.193","MEAN_MOTION_DDOT":"0.0000000000000","PERIOD":"95.092","INCLINATION":"97.4826","LAUNCH_DATE":"2021-01-24","OBJECT_TYPE":"PAYLOAD","REV_AT_EPOCH":"4134","TLE_LINE2":"2 47416  97.4826 355.4077 0004255 121.2829 238.8820 15.14316123 41342","TLE_LINE1":"1 47416U 21006D   21295.75988542  .00001397  00000-0  79854-4 0  9995","ARG_OF_PERICENTER":"121.2829","ECCENTRICITY":"0.00042550","GP_ID":"187934463","NORAD_CAT_ID":"47416","RCS_SIZE":"LARGE","COUNTRY_CODE":"US","REF_FRAME":"TEME","MEAN_ANOMALY":"238.8820","MEAN_ELEMENT_THEORY":"SGP4","TIME_SYSTEM":"UTC","ELEMENT_SET_NO":"999"},{"RA_OF_ASC_NODE":"355.4209","EPHEMERIS_TYPE":"0","BSTAR":"0.00013102000000","FILE":"3179071","MEAN_MOTION":"15.14312913","OBJECT_ID":"2021-006E","MEAN_MOTION_DOT":"0.00002334","EPOCH":"2021-10-22T18:11:37.076064","APOAPSIS":"525.728","OBJECT_NAME":"STARLINK-2203","CENTER_NAME":"EARTH","SITE":"AFETR","PERIAPSIS":"520.406","DECAY_DATE":null,"CLASSIFICATION_TYPE":"U","SEMIMAJOR_AXIS":"6901.202","MEAN_MOTION_DDOT":"0.0000000000000","LAUNCH_DATE":"2021-01-24","OBJECT_TYPE":"PAYLOAD","INCLINATION":"97.4831","PERIOD":"95.093","REV_AT_EPOCH":"4134","TLE_LINE1":"1 47417U 21006E   21295.75806801  .00002334  00000-0  13102-3 0  9998","TLE_LINE2":"2 47417  97.4831 355.4209 0003856 116.7476 243.4151 15.14312913 41341","ARG_OF_PERICENTER":"116.7476","ECCENTRICITY":"0.00038560","MEAN_ANOMALY":"243.4151","REF_FRAME":"TEME","COUNTRY_CODE":"US","GP_ID":"187934214","RCS_SIZE":"LARGE","NORAD_CAT_ID":"47417","TIME_SYSTEM":"UTC","ELEMENT_SET_NO":"999","MEAN_ELEMENT_THEORY":"SGP4"},{"TIME_SYSTEM":"UTC","ELEMENT_SET_NO":"999","MEAN_ELEMENT_THEORY":"SGP4","ECCENTRICITY":"0.00039440","REF_FRAME":"TEME","MEAN_ANOMALY":"215.1297","GP_ID":"187932963","RCS_SIZE":"LARGE","NORAD_CAT_ID":"47418","COUNTRY_CODE":"US","TLE_LINE1":"1 47418U 21006F   21295.71043551  .00001481  00000-0  11970-3 0  9993","TLE_LINE2":"2 47418  97.4938 352.0891 0003944 145.0188 215.1297 15.01254777 41125","ARG_OF_PERICENTER":"145.0188","LAUNCH_DATE":"2021-01-24","OBJECT_TYPE":"PAYLOAD","PERIOD":"95.920","INCLINATION":"97.4938","REV_AT_EPOCH":"4112","MEAN_MOTION_DDOT":"0.0000000000000","SEMIMAJOR_AXIS":"6941.163","SITE":"AFETR","CENTER_NAME":"EARTH","DECAY_DATE":null,"CLASSIFICATION_TYPE":"U","PERIAPSIS":"560.290","MEAN_MOTION_DOT":"0.00001481","EPOCH":"2021-10-22T17:03:01.628064","OBJECT_NAME":"STARLINK-2204","APOAPSIS":"565.766","RA_OF_ASC_NODE":"352.0891","EPHEMERIS_TYPE":"0","OBJECT_ID":"2021-006F","FILE":"3179071","MEAN_MOTION":"15.01254777","BSTAR":"0.00011970000000"},{"ARG_OF_PERICENTER":"124.1575","TLE_LINE1":"1 47419U 21006G   21295.75852344  .00001597  00000-0  90754-4 0  9992","TLE_LINE2":"2 47419  97.4832 355.4221 0004306 124.1575 236.0066 15.14312179 41349","REV_AT_EPOCH":"4134","OBJECT_TYPE":"PAYLOAD","LAUNCH_DATE":"2021-01-24","PERIOD":"95.093","INCLINATION":"97.4832","ELEMENT_SET_NO":"999","MEAN_ELEMENT_THEORY":"SGP4","TIME_SYSTEM":"UTC","REF_FRAME":"TEME","MEAN_ANOMALY":"236.0066","GP_ID":"187933212","RCS_SIZE":"LARGE","NORAD_CAT_ID":"47419","COUNTRY_CODE":"US","ECCENTRICITY":"0.00043060","MEAN_MOTION_DOT":"0.00001597","EPOCH":"2021-10-22T18:12:16.425216","APOAPSIS":"526.041","OBJECT_NAME":"STARLINK-2205","EPHEMERIS_TYPE":"0","OBJECT_ID":"2021-006G","FILE":"3179071","BSTAR":"0.00009075400000","MEAN_MOTION":"15.14312179","RA_OF_ASC_NODE":"355.4221","SEMIMAJOR_AXIS":"6901.205","MEAN_MOTION_DDOT":"0.0000000000000","DECAY_DATE":null,"CLASSIFICATION_TYPE":"U","PERIAPSIS":"520.098","SITE":"AFETR","CENTER_NAME":"EARTH"},{"TIME_SYSTEM":"UTC","MEAN_ELEMENT_THEORY":"SGP4","ELEMENT_SET_NO":"999","ECCENTRICITY":"0.00045970","COUNTRY_CODE":"US","GP_ID":"187933964","NORAD_CAT_ID":"47420","RCS_SIZE":"LARGE","MEAN_ANOMALY":"242.3429","REF_FRAME":"TEME","TLE_LINE2":"2 47420  97.4829 355.4179 0004597 117.8269 242.3429 15.14325895 41342","TLE_LINE1":"1 47420U 21006H   21295.75896932  .00001639  00000-0  93041-4 0  9994","ARG_OF_PERICENTER":"117.8269","INCLINATION":"97.4829","PERIOD":"95.092","LAUNCH_DATE":"2021-01-24","OBJECT_TYPE":"PAYLOAD","REV_AT_EPOCH":"4134","MEAN_MOTION_DDOT":"0.0000000000000","SEMIMAJOR_AXIS":"6901.163","CENTER_NAME":"EARTH","SITE":"AFETR","PERIAPSIS":"519.855","DECAY_DATE":null,"CLASSIFICATION_TYPE":"U","APOAPSIS":"526.200","OBJECT_NAME":"STARLINK-2206","MEAN_MOTION_DOT":"0.00001639","EPOCH":"2021-10-22T18:12:54.949248","RA_OF_ASC_NODE":"355.4179","MEAN_MOTION":"15.14325895","FILE":"3179071","BSTAR":"0.00009304100000","OBJECT_ID":"2021-006H","EPHEMERIS_TYPE":"0"},{"ARG_OF_PERICENTER":"123.7088","TLE_LINE2":"2 47421  97.4830 355.4183 0004274 123.7088 236.4552 15.14313691 41349","TLE_LINE1":"1 47421U 21006J   21295.75943321  .00001762  00000-0  99755-4 0  9995","REV_AT_EPOCH":"4134","INCLINATION":"97.4830","PERIOD":"95.093","LAUNCH_DATE":"2021-01-24","OBJECT_TYPE":"PAYLOAD","TIME_SYSTEM":"UTC","MEAN_ELEMENT_THEORY":"SGP4","ELEMENT_SET_NO":"999","COUNTRY_CODE":"US","GP_ID":"187934714","NORAD_CAT_ID":"47421","RCS_SIZE":"LARGE","MEAN_ANOMALY":"236.4552","REF_FRAME":"TEME","ECCENTRICITY":"0.00042740","OBJECT_NAME":"STARLINK-2207","APOAPSIS":"526.014","EPOCH":"2021-10-22T18:13:35.029344","MEAN_MOTION_DOT":"0.00001762","BSTAR":"0.00009975500000","FILE":"3179071","MEAN_MOTION":"15.14313691","OBJECT_ID":"2021-006J","EPHEMERIS_TYPE":"0","RA_OF_ASC_NODE":"355.4183","SEMIMAJOR_AXIS":"6901.200","MEAN_MOTION_DDOT":"0.0000000000000","PERIAPSIS":"520.115","DECAY_DATE":null,"CLASSIFICATION_TYPE":"U","SITE":"AFETR","CENTER_NAME":"EARTH"},{"SEMIMAJOR_AXIS":"6901.161","MEAN_MOTION_DDOT":"0.0000000000000","CENTER_NAME":"EARTH","SITE":"AFETR","PERIAPSIS":"520.049","CLASSIFICATION_TYPE":"U","DECAY_DATE":null,"OBJECT_NAME":"STARLINK-2208","APOAPSIS":"526.002","MEAN_MOTION_DOT":"0.00001842","EPOCH":"2021-10-22T18:10:55.902144","RA_OF_ASC_NODE":"355.4356","FILE":"3179071","BSTAR":"0.00010408000000","MEAN_MOTION":"15.14326641","OBJECT_ID":"2021-006K","EPHEMERIS_TYPE":"0","TIME_SYSTEM":"UTC","MEAN_ELEMENT_THEORY":"SGP4","ELEMENT_SET_NO":"999","ECCENTRICITY":"0.00043130","COUNTRY_CODE":"US","GP_ID":"187933462","RCS_SIZE":"LARGE","NORAD_CAT_ID":"47422","MEAN_ANOMALY":"238.8232","REF_FRAME":"TEME","TLE_LINE2":"2 47422  97.4837 355.4356 0004313 121.3422 238.8232 15.14326641 41349","TLE_LINE1":"1 47422U 21006K   21295.75759146  .00001842  00000-0  10408-3 0  9992","ARG_OF_PERICENTER":"121.3422","INCLINATION":"97.4837","PERIOD":"95.092","OBJECT_TYPE":"PAYLOAD","LAUNCH_DATE":"2021-01-24","REV_AT_EPOCH":"4134"},{"ELEMENT_SET_NO":"999","TIME_SYSTEM":"UTC","MEAN_ELEMENT_THEORY":"SGP4","ECCENTRICITY":"0.00010600","REF_FRAME":"TEME","MEAN_ANOMALY":"282.9980","RCS_SIZE":"LARGE","GP_ID":"187901631","NORAD_CAT_ID":"47548","COUNTRY_CODE":"US","TLE_LINE1":"1 47548U 21009A   21295.45654120  .00001181  00000-0  98206-4 0  9996","TLE_LINE2":"2 47548  53.0576 350.8602 0001060  77.1127 282.9980 15.06375911 39897","ARG_OF_PERICENTER":"77.1127","LAUNCH_DATE":"2021-02-04","OBJECT_TYPE":"PAYLOAD","PERIOD":"95.594","INCLINATION":"53.0576","REV_AT_EPOCH":"3989","MEAN_MOTION_DDOT":"0.0000000000000","SEMIMAJOR_AXIS":"6925.422","SITE":"AFETR","CENTER_NAME":"EARTH","DECAY_DATE":null,"CLASSIFICATION_TYPE":"U","PERIAPSIS":"546.553","EPOCH":"2021-10-22T10:57:25.159680","MEAN_MOTION_DOT":"0.00001181","OBJECT_NAME":"STARLINK-1782","APOAPSIS":"548.021","RA_OF_ASC_NODE":"350.8602","EPHEMERIS_TYPE":"0","OBJECT_ID":"2021-009A","FILE":"3178676","BSTAR":"0.00009820600000","MEAN_MOTION":"15.06375911"}];
